OBJECT_NAME,OBJECT_ID,EPOCH,MEAN_MOTION,ECCENTRICITY,INCLINATION,RA_OF_ASC_NODE,ARG_OF_PERICENTER,MEAN_ANOMALY,EPHEMERIS_TYPE,CLASSIFICATION_TYPE,NORAD_CAT_ID,ELEMENT_SET_NO,REV_AT_EPOCH,BSTAR,MEAN_MOTION_DOT,MEAN_MOTION_DDOT
HST,1990-037B,2026-06-30T20:00:30.930048,15.30907580,.00014927,28.4735,347.2986,312.4746,47.5724,0,U,20580,999,79066,.23748019E-3,.7536E-4,0
POLAR,1996-013A,2026-06-30T03:08:36.961440,1.29846073,.64833789,79.8705,226.8996,208.6352,90.6787,0,U,23802,999,14502,0,.195E-5,0
SWAS,1998-071A,2026-06-30T14:22:17.371488,15.09685221,.00085253,69.8937,192.9308,246.9133,113.1133,0,U,25560,999,49929,.13031917E-3,.2E-4,0
CXO,1999-040B,2026-07-01T14:24:08.173440,0.37794011,.78122746,56.3386,116.3110,310.0948,0.4515,0,U,25867,999,1737,0,.698E-5,0
XMM-NEWTON,1999-066A,2026-06-30T07:31:49.282176,0.50127122,.46708159,64.4187,282.8185,64.6474,0.0796,0,U,25989,999,2307,0,.75E-6,0
TERRA,1999-068A,2026-06-30T22:15:11.508192,14.61113975,.00026279,97.9449,230.9283,152.3443,309.8686,0,U,25994,999,41161,.970907E-4,.433E-5,0
CLUSTER II-FM7 (SAMBA),2000-041A,2026-06-30T12:38:19.485024,0.44858661,.90690818,149.8901,53.0517,270.4354,359.5654,0,U,26410,999,2036,0,.15728E-3,0
CLUSTER II-FM8 (TANGO),2000-045B,2026-06-28T16:41:34.777824,0.44420805,.90720795,150.1134,53.8490,271.0645,2.4192,0,U,26464,999,2036,0,.10301E-3,0
ODIN,2001-007A,2026-06-30T02:14:27.077280,15.80880084,.00060128,97.3784,222.9075,133.8248,226.3518,0,U,26702,999,39143,.11434341E-2,.225491E-2,0
TIMED,2001-055B,2026-06-30T10:56:35.186784,14.95318085,.00017745,74.0663,208.3016,317.4958,42.6089,0,U,26998,999,33280,.91730898E-4,.972E-5,0
CORIOLIS,2003-001A,2026-06-30T10:40:13.444320,14.19948335,.00141604,98.7127,188.1270,169.9782,190.1680,0,U,27640,999,21610,.64879973E-4,.94E-6,0
SORCE,2003-004A,2026-06-30T10:07:44.842656,15.03771753,.00167806,39.9886,186.1637,150.9738,209.1992,0,U,27651,999,27389,.17721604E-3,.2331E-4,0
MOST,2003-031D,2026-06-30T10:42:02.996928,14.21325107,.00092338,98.7044,188.9867,208.3088,151.7588,0,U,27843,999,19259,.48451492E-4,.62E-6,0
SCISAT 1,2003-036A,2026-06-30T20:47:51.130464,14.81463270,.00080656,73.9294,144.1637,214.1119,145.9540,0,U,27858,999,23347,.87903589E-4,.652E-5,0
SWIFT,2004-047A,2026-06-30T22:05:08.475936,15.69655625,.00010772,20.5529,78.8626,132.9517,227.1020,0,U,28485,999,18902,.48267308E-3,.61256E-3,0
HINODE (SOLAR-B),2006-041A,2026-06-30T11:18:16.031232,14.68640619,.00160982,98.0543,197.4276,243.7599,116.1952,0,U,29479,999,5682,.13017071E-3,.709E-5,0
SHIJIAN-6 02A (SJ-6 02A),2006-046A,2026-06-30T22:38:24.719424,15.17095283,.00047437,97.6351,223.1133,94.2483,265.9292,0,U,29505,999,7435,.23962017E-3,.4679E-4,0
SHIJIAN-6 02B (SJ-6 02B),2006-046B,2026-07-01T00:12:42.703776,15.01408608,.00150334,97.7152,210.9819,21.1598,339.0245,0,U,29506,999,7281,.70905401E-4,.855E-5,0
FGRST (GLAST),2008-029A,2026-06-30T21:55:10.810848,15.24006582,.00084668,25.5818,109.1668,126.8037,233.3279,0,U,33053,999,99793,.11331714E-3,.3164E-4,0
SDO,2010-005A,2026-06-30T05:53:38.601888,1.00270579,.00014936,34.6771,86.1450,51.4419,126.9147,0,U,36395,999,6019,0,-.9E-6,0
CRYOSAT 2,2010-013A,2026-06-30T22:25:36.038496,14.51903148,.00021767,92.0362,280.6435,96.3719,263.7736,0,U,36508,999,86007,.27762776E-4,.115E-5,0
X-SAT,2011-015C,2026-06-30T21:58:23.565792,14.25209718,.00130825,98.3512,158.2853,306.6852,53.3126,0,U,37389,999,78963,.7858234E-5,-.23E-6,0
GCOM-W1 (SHIZUKU),2012-025A,2026-06-30T10:24:02.927808,14.57136646,.00015944,98.2022,121.7886,68.9682,45.6130,0,U,38337,999,75096,.11796471E-3,.487E-5,0
NUSTAR,2012-031A,2026-07-01T00:00:00.999648,15.08931861,.00088899,6.0279,290.5415,307.7299,135.9013,0,U,38358,999,130,.71150577E-3,.12456E-3,0
NEOSSAT,2013-009D,2026-06-30T22:30:21.072960,14.35831171,.00105418,98.4182,1.6437,199.5670,160.5113,0,U,39089,999,69871,.65597973E-4,.147E-5,0
BRITE-AUSTRIA,2013-009F,2026-06-30T22:18:31.190688,14.36547510,.00098551,98.3999,1.0254,192.4846,167.6098,0,U,39091,999,69902,.78102164E-4,.187E-5,0
IRIS,2013-033A,2026-06-30T23:16:20.646624,14.85912118,.00229562,97.9321,21.2033,274.3730,85.4862,0,U,39197,999,70242,.12718914E-3,.1058E-4,0
HISAKI (SPRINT-A),2013-049A,2026-06-30T23:23:53.956320,13.55545732,.01368758,29.7176,149.9105,128.6389,232.6522,0,U,39253,999,63329,.2426142E-4,.82E-6,0
CASSIOPE,2013-055A,2026-06-30T22:23:56.935104,15.26448739,.02875001,80.9129,50.0135,16.1873,344.8306,0,U,39265,999,66976,.52764427E-3,.48838E-3,-.291679E-6
STSAT-3,2013-066G,2026-06-30T23:05:46.277952,15.02826562,.00097329,97.6215,151.6292,3.2601,356.8685,0,U,39422,999,68627,.70685537E-4,.887E-5,0
