HST                     
1 20580U 90037B   26181.83369132  .00007536  00000+0  23748-3 0  9994
2 20580  28.4735 347.2986 0001492 312.4746  47.5724 15.30907580790663
POLAR                   
1 23802U 96013A   26181.13098335  .00000195  00000+0  00000+0 0  9997
2 23802  79.8705 226.8996 6483378 208.6352  90.6787  1.29846073145029
SWAS                    
1 25560U 98071A   26181.59881217  .00002000  00000+0  13032-3 0  9995
2 25560  69.8937 192.9308 0008525 246.9133 113.1133 15.09685221499297
CXO                     
1 25867U 99040B   26182.60009460  .00000698  00000+0  00000+0 0  9995
2 25867  56.3386 116.3110 7812274 310.0948   0.4515  0.37794011 17375
XMM-NEWTON              
1 25989U 99066A   26181.31376484  .00000075  00000+0  00000+0 0  9997
2 25989  64.4187 282.8185 4670815  64.6474   0.0796  0.50127122 23075
TERRA                   
1 25994U 99068A   26181.92721653  .00000433  00000+0  97091-4 0  9993
2 25994  97.9449 230.9283 0002627 152.3443 309.8686 14.61113975411610
CLUSTER II-FM7 (SAMBA)  
1 26410U 00041A   26181.52661441  .00015728  00000+0  00000+0 0  9996
2 26410 149.8901  53.0517 9069081 270.4354 359.5654  0.44858661 20366
CLUSTER II-FM8 (TANGO)  
1 26464U 00045B   26179.69554141  .00010301  00000+0  00000+0 0  9994
2 26464 150.1134  53.8490 9072079 271.0645   2.4192  0.44420805 20363
ODIN                    
1 26702U 01007A   26181.09336895  .00225491  00000+0  11434-2 0  9993
2 26702  97.3784 222.9075 0006012 133.8248 226.3518 15.80880084391431
TIMED                   
1 26998U 01055B   26181.45596281  .00000972  00000+0  91731-4 0  9995
2 26998  74.0663 208.3016 0001774 317.4958  42.6089 14.95318085332807
CORIOLIS                
1 27640U 03001A   26181.44460005  .00000094  00000+0  64880-4 0  9996
2 27640  98.7127 188.1270 0014160 169.9782 190.1680 14.19948335216108
SORCE                   
1 27651U 03004A   26181.42204679  .00002331  00000+0  17722-3 0  9990
2 27651  39.9886 186.1637 0016780 150.9738 209.1992 15.03771753273893
MOST                    
1 27843U 03031D   26181.44586802  .00000062  00000+0  48451-4 0  9999
2 27843  98.7044 188.9867 0009233 208.3088 151.7588 14.21325107192598
SCISAT 1                
1 27858U 03036A   26181.86656401  .00000652  00000+0  87904-4 0  9990
2 27858  73.9294 144.1637 0008065 214.1119 145.9540 14.81463270233473
SWIFT                   
1 28485U 04047A   26181.92023699  .00061256  00000+0  48267-3 0  9999
2 28485  20.5529  78.8626 0001077 132.9517 227.1020 15.69655625189026
HINODE (SOLAR-B)        
1 29479U 06041A   26181.47101888  .00000709  00000+0  13017-3 0  9997
2 29479  98.0543 197.4276 0016098 243.7599 116.1952 14.68640619 56822
SHIJIAN-6 02A (SJ-6 02A)
1 29505U 06046A   26181.94334166  .00004679  00000+0  23962-3 0  9991
2 29505  97.6351 223.1133 0004743  94.2483 265.9292 15.17095283 74352
SHIJIAN-6 02B (SJ-6 02B)
1 29506U 06046B   26182.00882759  .00000855  00000+0  70905-4 0  9998
2 29506  97.7152 210.9819 0015033  21.1598 339.0245 15.01408608 72810
FGRST (GLAST)           
1 33053U 08029A   26181.91331957  .00003164  00000+0  11332-3 0  9995
2 33053  25.5818 109.1668 0008466 126.8037 233.3279 15.24006582997936
SDO                     
1 36395U 10005A   26181.24558567 -.00000090  00000+0  00000+0 0  9990
2 36395  34.6771  86.1450 0001493  51.4419 126.9147  1.00270579 60198
CRYOSAT 2               
1 36508U 10013A   26181.93444489  .00000115  00000+0  27763-4 0  9995
2 36508  92.0362 280.6435 0002176  96.3719 263.7736 14.51903148860076
X-SAT                   
1 37389U 11015C   26181.91555053 -.00000023  00000+0  78582-5 0  9999
2 37389  98.3512 158.2853 0013082 306.6852  53.3126 14.25209718789638
GCOM-W1 (SHIZUKU)       
1 38337U 12025A   26181.43336722  .00000487  00000+0  11796-3 0  9997
2 38337  98.2022 121.7886 0001594  68.9682  45.6130 14.57136646750969
NUSTAR                  
1 38358U 12031A   26182.00001157  .00012456  00000+0  71151-3 0  9992
2 38358   6.0279 290.5415 0008889 307.7299 135.9013 15.08931861  1307
NEOSSAT                 
1 39089U 13009D   26181.93774390  .00000147  00000+0  65598-4 0  9990
2 39089  98.4182   1.6437 0010541 199.5670 160.5113 14.35831171698714
BRITE-AUSTRIA           
1 39091U 13009F   26181.92952767  .00000187  00000+0  78102-4 0  9997
2 39091  98.3999   1.0254 0009855 192.4846 167.6098 14.36547510699023
IRIS                    
1 39197U 13033A   26181.96968341  .00001058  00000+0  12719-3 0  9999
2 39197  97.9321  21.2033 0022956 274.3730  85.4862 14.85912118702421
HISAKI (SPRINT-A)       
1 39253U 13049A   26181.97493005  .00000082  00000+0  24261-4 0  9992
2 39253  29.7176 149.9105 0136875 128.6389 232.6522 13.55545732633297
CASSIOPE                
1 39265U 13055A   26181.93329786  .00048838 -29168-6  52764-3 0  9995
2 39265  80.9129  50.0135 0287500  16.1873 344.8306 15.26448739669769
STSAT-3                 
1 39422U 13066G   26181.96234118  .00000887  00000+0  70686-4 0  9991
2 39422  97.6215 151.6292 0009732   3.2601 356.8685 15.02826562686278
